{
  "type": "FeatureCollection",
  "features": [
    {
      "type": "Feature",
      "properties": {
        "norad_id": 31255,
        "name": "FENGYUN 1C DEB",
        "group": "fengyun-1c-debris",
        "lat": 52.065997305114216,
        "lon": 10.260567626557847,
        "alt_km": 1050.938751732052,
        "timestamp": "2025-12-26T12:57:39.554101+00:00",
        "meta_object_name": "FENGYUN 1C DEB",
        "meta_object_id": "1999-025BMM",
        "meta_epoch": "2025-12-23T11:06:19.382976",
        "meta_mean_motion": 14.09743921,
        "meta_eccentricity": 0.02703562,
        "meta_inclination": 99.3085,
        "meta_ra_of_asc_node": 174.9282,
        "meta_arg_of_pericenter": 313.5957,
        "meta_mean_anomaly": 44.3057,
        "meta_ephemeris_type": 0,
        "meta_classification_type": "U",
        "meta_norad_cat_id": 31255,
        "meta_element_set_no": 999,
        "meta_rev_at_epoch": 96952,
        "meta_bstar": 0.00028400087,
        "meta_mean_motion_dot": 6.46e-06,
        "meta_mean_motion_ddot": 0,
        "tle_line1": "1 31255U 99025BMM 25357.46272434  .00000646  00000+0  28400-3 0  9997",
        "tle_line2": "2 31255  99.3085 174.9282 0270356 313.5957  44.3057 14.09743921969525"
      },
      "geometry": {
        "type": "Point",
        "coordinates": [
          10.260567626557847,
          52.065997305114216
        ]
      }
    },
    {
      "type": "Feature",
      "properties": {
        "norad_id": 31256,
        "name": "FENGYUN 1C DEB",
        "group": "fengyun-1c-debris",
        "lat": 35.75436293520767,
        "lon": -158.72109284398715,
        "alt_km": 702.3303716248229,
        "timestamp": "2025-12-26T12:57:39.554111+00:00",
        "meta_object_name": "FENGYUN 1C DEB",
        "meta_object_id": "1999-025BMN",
        "meta_epoch": "2025-12-26T00:49:02.544672",
        "meta_mean_motion": 14.03417429,
        "meta_eccentricity": 0.03084822,
        "meta_inclination": 98.6799,
        "meta_ra_of_asc_node": 207.1098,
        "meta_arg_of_pericenter": 76.5861,
        "meta_mean_anomaly": 286.9492,
        "meta_ephemeris_type": 0,
        "meta_classification_type": "U",
        "meta_norad_cat_id": 31256,
        "meta_element_set_no": 999,
        "meta_rev_at_epoch": 65168,
        "meta_bstar": 0.0020576863,
        "meta_mean_motion_dot": 4.872e-05,
        "meta_mean_motion_ddot": 0,
        "tle_line1": "1 31256U 99025BMN 25360.03405723  .00004872  00000+0  20577-2 0  9995",
        "tle_line2": "2 31256  98.6799 207.1098 0308482  76.5861 286.9492 14.03417429651683"
      },
      "geometry": {
        "type": "Point",
        "coordinates": [
          -158.72109284398715,
          35.75436293520767
        ]
      }
    },
    {
      "type": "Feature",
      "properties": {
        "norad_id": 31258,
        "name": "FENGYUN 1C DEB",
        "group": "fengyun-1c-debris",
        "lat": -69.63256471610603,
        "lon": 176.4677798878003,
        "alt_km": 515.4969939355069,
        "timestamp": "2025-12-26T12:57:39.554121+00:00",
        "meta_object_name": "FENGYUN 1C DEB",
        "meta_object_id": "1999-025BMQ",
        "meta_epoch": "2025-12-24T09:10:00.892992",
        "meta_mean_motion": 15.16490978,
        "meta_eccentricity": 0.00080756,
        "meta_inclination": 98.8459,
        "meta_ra_of_asc_node": 149.1496,
        "meta_arg_of_pericenter": 313.0592,
        "meta_mean_anomaly": 77.2455,
        "meta_ephemeris_type": 0,
        "meta_classification_type": "U",
        "meta_norad_cat_id": 31258,
        "meta_element_set_no": 999,
        "meta_rev_at_epoch": 97287,
        "meta_bstar": 0.010968771,
        "meta_mean_motion_dot": 0.00220131,
        "meta_mean_motion_ddot": 0,
        "tle_line1": "1 31258U 99025BMQ 25358.38195478  .00220131  00000+0  10969-1 0  9996",
        "tle_line2": "2 31258  98.8459 149.1496 0008075 313.0592  77.2455 15.16490978972874"
      },
      "geometry": {
        "type": "Point",
        "coordinates": [
          176.4677798878003,
          -69.63256471610603
        ]
      }
    },
    {
      "type": "Feature",
      "properties": {
        "norad_id": 31259,
        "name": "FENGYUN 1C DEB",
        "group": "fengyun-1c-debris",
        "lat": -75.94535472293606,
        "lon": 119.19286953563916,
        "alt_km": 874.7188829102442,
        "timestamp": "2025-12-26T12:57:39.554131+00:00",
        "meta_object_name": "FENGYUN 1C DEB",
        "meta_object_id": "1999-025BMR",
        "meta_epoch": "2025-12-26T02:01:04.056672",
        "meta_mean_motion": 14.15108054,
        "meta_eccentricity": 0.0065768,
        "meta_inclination": 99.0085,
        "meta_ra_of_asc_node": 79.4102,
        "meta_arg_of_pericenter": 159.3643,
        "meta_mean_anomaly": 319.2714,
        "meta_ephemeris_type": 0,
        "meta_classification_type": "U",
        "meta_norad_cat_id": 31259,
        "meta_element_set_no": 999,
        "meta_rev_at_epoch": 95758,
        "meta_bstar": 0.0016200952,
        "meta_mean_motion_dot": 3.164e-05,
        "meta_mean_motion_ddot": 0,
        "tle_line1": "1 31259U 99025BMR 25360.08407473  .00003164  00000+0  16201-2 0  9999",
        "tle_line2": "2 31259  99.0085  79.4102 0065768 159.3643 319.2714 14.15108054957589"
      },
      "geometry": {
        "type": "Point",
        "coordinates": [
          119.19286953563916,
          -75.94535472293606
        ]
      }
    },
    {
      "type": "Feature",
      "properties": {
        "norad_id": 31260,
        "name": "FENGYUN 1C DEB",
        "group": "fengyun-1c-debris",
        "lat": -13.812537971051322,
        "lon": -99.74988059672205,
        "alt_km": 777.1622491854105,
        "timestamp": "2025-12-26T12:57:39.554141+00:00",
        "meta_object_name": "FENGYUN 1C DEB",
        "meta_object_id": "1999-025BMS",
        "meta_epoch": "2025-12-26T05:22:38.527392",
        "meta_mean_motion": 14.36501637,
        "meta_eccentricity": 0.00463378,
        "meta_inclination": 98.9561,
        "meta_ra_of_asc_node": 257.6997,
        "meta_arg_of_pericenter": 252.3828,
        "meta_mean_anomaly": 260.064,
        "meta_ephemeris_type": 0,
        "meta_classification_type": "U",
        "meta_norad_cat_id": 31260,
        "meta_element_set_no": 999,
        "meta_rev_at_epoch": 97387,
        "meta_bstar": 0.0010153792,
        "meta_mean_motion_dot": 2.97e-05,
        "meta_mean_motion_ddot": 0,
        "tle_line1": "1 31260U 99025BMS 25360.22405703  .00002970  00000+0  10154-2 0  9996",
        "tle_line2": "2 31260  98.9561 257.6997 0046337 252.3828 260.0640 14.36501637973878"
      },
      "geometry": {
        "type": "Point",
        "coordinates": [
          -99.74988059672205,
          -13.812537971051322
        ]
      }
    },
    {
      "type": "Feature",
      "properties": {
        "norad_id": 31261,
        "name": "FENGYUN 1C DEB",
        "group": "fengyun-1c-debris",
        "lat": -2.7761381679739165,
        "lon": 134.23300533036164,
        "alt_km": 725.8581435642436,
        "timestamp": "2025-12-26T12:57:39.554152+00:00",
        "meta_object_name": "FENGYUN 1C DEB",
        "meta_object_id": "1999-025BMT",
        "meta_epoch": "2025-12-25T14:26:15.686016",
        "meta_mean_motion": 14.4015586,
        "meta_eccentricity": 0.0050165,
        "meta_inclination": 99.0168,
        "meta_ra_of_asc_node": 313.6864,
        "meta_arg_of_pericenter": 194.1826,
        "meta_mean_anomaly": 165.7955,
        "meta_ephemeris_type": 0,
        "meta_classification_type": "U",
        "meta_norad_cat_id": 31261,
        "meta_element_set_no": 999,
        "meta_rev_at_epoch": 97535,
        "meta_bstar": 0.00095073,
        "meta_mean_motion_dot": 3.001e-05,
        "meta_mean_motion_ddot": 0,
        "tle_line1": "1 31261U 99025BMT 25359.60157044  .00003001  00000+0  95073-3 0  9999",
        "tle_line2": "2 31261  99.0168 313.6864 0050165 194.1826 165.7955 14.40155860975358"
      },
      "geometry": {
        "type": "Point",
        "coordinates": [
          134.23300533036164,
          -2.7761381679739165
        ]
      }
    },
    {
      "type": "Feature",
      "properties": {
        "norad_id": 31262,
        "name": "FENGYUN 1C DEB",
        "group": "fengyun-1c-debris",
        "lat": -15.414449167403399,
        "lon": -98.31541757944504,
        "alt_km": 864.215128560897,
        "timestamp": "2025-12-26T12:57:39.554162+00:00",
        "meta_object_name": "FENGYUN 1C DEB",
        "meta_object_id": "1999-025BMU",
        "meta_epoch": "2025-12-23T04:36:31.658976",
        "meta_mean_motion": 14.18250623,
        "meta_eccentricity": 0.00545996,
        "meta_inclination": 99.0016,
        "meta_ra_of_asc_node": 80.7949,
        "meta_arg_of_pericenter": 68.7564,
        "meta_mean_anomaly": 321.7706,
        "meta_ephemeris_type": 0,
        "meta_classification_type": "U",
        "meta_norad_cat_id": 31262,
        "meta_element_set_no": 999,
        "meta_rev_at_epoch": 95857,
        "meta_bstar": 0.0016102319,
        "meta_mean_motion_dot": 3.318e-05,
        "meta_mean_motion_ddot": 0,
        "tle_line1": "1 31262U 99025BMU 25357.19203309  .00003318  00000+0  16102-2 0  9994",
        "tle_line2": "2 31262  99.0016  80.7949 0054599  68.7564 321.7706 14.18250623958578"
      },
      "geometry": {
        "type": "Point",
        "coordinates": [
          -98.31541757944504,
          -15.414449167403399
        ]
      }
    }
  ]
}